[
    {
        "Altitude(m)": 604234.616709142,
        "Argument of Periapsis(deg)": 0.0,
        "Eccentricity": 0.0,
        "Inclination(deg)": 60.0,
        "Latitude(deg)": 14.117278416708954,
        "Longitude(deg)": 36.72730666887553,
        "Mean Anomaly(deg)": -196.36360000000005,
        "RAAN(deg)": 325.0,
        "Satellite Name": "Test1 1440",
        "Satellite Number": 1440,
        "Semi-Major Axis(m)": 6980739.136638005,
        "Time(s)": 0
    },
    {
        "Altitude(m)": 604223.4450869639,
        "Argument of Periapsis(deg)": 0.00010418945913296404,
        "Eccentricity": 0.0,
        "Inclination(deg)": 60.0,
        "Latitude(deg)": 13.582415203320329,
        "Longitude(deg)": 37.01421670985238,
        "Mean Anomaly(deg)": -195.7434938545382,
        "RAAN(deg)": 324.99957995086027,
        "Satellite Name": "Test1 1440",
        "Satellite Number": 1440,
        "Semi-Major Axis(m)": 6980739.136638005,
        "Time(s)": 10
    }
]